{
    "links": {
        "self": "http://www.neowsapp.com/rest/v1/neo/3655554?api_key=iIulBulltgU6a56xZRHN4H3l9WmuAYTsLGpBGhQ2"
    },
    "id": "3655554",
    "neo_reference_id": "3655554",
    "name": "(2013 YE48)",
    "designation": "2013 YE48",
    "nasa_jpl_url": "http://ssd.jpl.nasa.gov/sbdb.cgi?sstr=3655554",
    "absolute_magnitude_h": 23.7,
    "estimated_diameter": {
        "kilometers": {
            "estimated_diameter_min": 0.0483676488,
            "estimated_diameter_max": 0.1081533507
        },
        "meters": {
            "estimated_diameter_min": 48.3676488219,
            "estimated_diameter_max": 108.1533506775
        },
        "miles": {
            "estimated_diameter_min": 0.0300542543,
            "estimated_diameter_max": 0.0672033557
        },
        "feet": {
            "estimated_diameter_min": 158.6865169607,
            "estimated_diameter_max": 354.8338390368
        }
    },
    "is_potentially_hazardous_asteroid": false,
    "close_approach_data": [
        {
            "close_approach_date": "2014-01-05",
            "close_approach_date_full": "2014-Jan-05 08:30",
            "epoch_date_close_approach": 1388910600000,
            "relative_velocity": {
                "kilometers_per_second": "24.4643165345",
                "kilometers_per_hour": "88071.5395240931",
                "miles_per_hour": "54724.2296559566"
            },
            "miss_distance": {
                "astronomical": "0.0665876816",
                "lunar": "25.9026081424",
                "kilometers": "9961375.335598192",
                "miles": "6189711.6127993696"
            },
            "orbiting_body": "Earth"
        },
        {
            "close_approach_date": "2014-01-23",
            "close_approach_date_full": "2014-Jan-23 03:11",
            "epoch_date_close_approach": 1390446660000,
            "relative_velocity": {
                "kilometers_per_second": "21.3725415716",
                "kilometers_per_hour": "76941.1496578259",
                "miles_per_hour": "47808.238241553"
            },
            "miss_distance": {
                "astronomical": "0.1420635936",
                "lunar": "55.2627379104",
                "kilometers": "21252411.007105632",
                "miles": "13205635.8463444416"
            },
            "orbiting_body": "Venus"
        }
    ],
    "orbital_data": {
        "orbit_id": "11",
        "orbit_determination_date": "2017-04-06 08:43:07",
        "first_observation_date": "2013-12-29",
        "last_observation_date": "2014-01-04",
        "data_arc_in_days": 6,
        "observations_used": 50,
        "orbit_uncertainty": "8",
        "minimum_orbit_intersection": ".0135212",
        "jupiter_tisserand_invariant": "3.490",
        "epoch_osculation": "2456657.5",
        "eccentricity": ".7406636482882015",
        "semi_major_axis": "1.896918935623312",
        "inclination": "22.98009569882574",
        "ascending_node_longitude": "99.98751904090895",
        "orbital_period": "954.2706893884638",
        "perihelion_distance": ".4919400362575777",
        "perihelion_argument": "102.2603494741551",
        "aphelion_distance": "3.301897834989047",
        "perihelion_time": "2456709.630406337961",
        "mean_anomaly": "340.3337286889818",
        "mean_motion": ".3772514486751164",
        "equinox": "J2000",
        "orbit_class": {
            "orbit_class_type": "APO",
            "orbit_class_description": "Near-Earth asteroid orbits which cross the Earth’s orbit similar to that of 1862 Apollo",
            "orbit_class_range": "a (semi-major axis) > 1.0 AU; q (perihelion) < 1.017 AU"
        }
    },
    "is_sentry_object": false
}